COMMENT,ORIGINATOR,NORAD_CAT_ID,OBJECT_NAME,OBJECT_TYPE,CLASSIFICATION_TYPE,INTLDES,EPOCH,EPOCH_MICROSECONDS,MEAN_MOTION,ECCENTRICITY,INCLINATION,RA_OF_ASC_NODE,ARG_OF_PERICENTER,MEAN_ANOMALY,EPHEMERIS_TYPE,ELEMENT_SET_NO,REV_AT_EPOCH,BSTAR,MEAN_MOTION_DOT,MEAN_MOTION_DDOT,FILE,TLE_LINE0,TLE_LINE1,TLE_LINE2,OBJECT_ID,OBJECT_NUMBER,SEMIMAJOR_AXIS,PERIOD,APOGEE,PERIGEE,DECAYED
GENERATED VIA SPACETRACK.ORG API,18 SPCS,52365,STARLINK-3874,PAYLOAD,U,22045AL,2023-03-22 04:07:02,498016,15.08845764,0.0001128,53.2198,13.2225,92.606,267.5061,0,999,5234,0.0015747,0.00024866,0,3867269,0 STARLINK-3874,1 52365U 22045AL  23081.17155669  .00024866  00000-0  15747-2 0  9990,2 52365  53.2198  13.2225 0001128  92.6060 267.5061 15.08845764 52340,2022-045AL,52365,6917.863,95.437,540.508,538.947,0
GENERATED VIA SPACETRACK.ORG API,18 SPCS,52365,STARLINK-3874,PAYLOAD,U,22045AL,2023-03-22 04:07:02,498016,15.08845764,0.0001128,53.2198,13.2225,92.606,267.5061,0,999,5234,0.0015747,0.00024866,0,3868201,0 STARLINK-3874,1 52365U 22045AL  23081.17155669  .00024866  00000-0  15747-2 0  9990,2 52365  53.2198  13.2225 0001128  92.6060 267.5061 15.08845764 52340,2022-045AL,52365,6917.863,95.437,540.508,538.947,0
GENERATED VIA SPACETRACK.ORG API,18 SPCS,52365,STARLINK-3874,PAYLOAD,U,22045AL,2023-03-23 02:22:26,399424,15.08853511,0.0001048,53.2181,9.0587,86.7294,273.3818,0,999,5248,0.0016114,0.0002546,0,3868156,0 STARLINK-3874,1 52365U 22045AL  23082.09891666  .00025460  00000-0  16114-2 0  9996,2 52365  53.2181   9.0587 0001048  86.7294 273.3818 15.08853511 52489,2022-045AL,52365,6917.839,95.437,540.429,538.979,0
GENERATED VIA SPACETRACK.ORG API,18 SPCS,52365,STARLINK-3874,PAYLOAD,U,22045AL,2023-03-23 02:22:26,399424,15.08853511,0.0001048,53.2181,9.0587,86.7294,273.3818,0,999,5248,0.0016114,0.0002546,0,3868494,0 STARLINK-3874,1 52365U 22045AL  23082.09891666  .00025460  00000-0  16114-2 0  9996,2 52365  53.2181   9.0587 0001048  86.7294 273.3818 15.08853511 52489,2022-045AL,52365,6917.839,95.437,540.429,538.979,0
GENERATED VIA SPACETRACK.ORG API,18 SPCS,52365,STARLINK-3874,PAYLOAD,U,22045AL,2023-03-23 15:05:31,597152,15.0884817,0.0001041,53.2183,6.6842,119.0793,241.0304,0,999,5256,0.00099245,0.00015546,0,3868752,0 STARLINK-3874,1 52365U 22045AL  23082.62883793  .00015546  00000-0  99245-3 0  9998,2 52365  53.2183   6.6842 0001041 119.0793 241.0304 15.08848170 52561,2022-045AL,52365,6917.855,95.437,540.441,539.0,0
GENERATED VIA SPACETRACK.ORG API,18 SPCS,52365,STARLINK-3874,PAYLOAD,U,22045AL,2023-03-23 15:05:31,597152,15.0884817,0.0001041,53.2183,6.6842,119.0793,241.0304,0,999,5256,0.00099245,0.00015546,0,3868816,0 STARLINK-3874,1 52365U 22045AL  23082.62883793  .00015546  00000-0  99245-3 0  9998,2 52365  53.2183   6.6842 0001041 119.0793 241.0304 15.08848170 52561,2022-045AL,52365,6917.855,95.437,540.441,539.0,0
GENERATED VIA SPACETRACK.ORG API,18 SPCS,52365,STARLINK-3874,PAYLOAD,U,22045AL,2023-03-24 03:48:36,27648,15.08950221,9.29e-05,53.2174,4.301,119.802,240.3065,0,999,5264,0.0091589,0.00149025,0,3869153,0 STARLINK-3874,1 52365U 22045AL  23083.15875032  .00149025  00000-0  91589-2 0  9996,2 52365  53.2174   4.3010 0000929 119.8020 240.3065 15.08950221 52644,2022-045AL,52365,6917.544,95.431,540.051,538.766,0
GENERATED VIA SPACETRACK.ORG API,18 SPCS,52365,STARLINK-3874,PAYLOAD,U,22045AL,2023-03-25 03:39:21,956544,15.0889312,0.0001362,53.2165,359.8412,81.1371,278.9775,0,999,5279,0.0019559,0.00031023,0,3870361,0 STARLINK-3874,1 52365U 22045AL  23084.15233746  .00031023  00000-0  19559-2 0  9992,2 52365  53.2165 359.8412 0001362  81.1371 278.9775 15.08893120 52795,2022-045AL,52365,6917.718,95.434,540.525,538.641,0
GENERATED VIA SPACETRACK.ORG API,18 SPCS,52365,STARLINK-3874,PAYLOAD,U,22045AL,2023-03-25 22:44:00,817152,15.08812446,0.0001188,53.2168,356.2733,141.4256,218.6821,0,999,5291,0.0010721,0.00016803,0,3871104,0 STARLINK-3874,1 52365U 22045AL  23084.94723168  .00016803  00000-0  10721-2 0  9992,2 52365  53.2168 356.2733 0001188 141.4256 218.6821 15.08812446 52912,2022-045AL,52365,6917.965,95.439,540.651,539.008,0
GENERATED VIA SPACETRACK.ORG API,18 SPCS,52365,STARLINK-3874,PAYLOAD,U,22045AL,2023-03-26 05:05:34,78272,15.08826821,0.0001349,53.2171,355.0833,108.4831,251.6307,0,999,5295,0.0025748,0.00040913,0,3871397,0 STARLINK-3874,1 52365U 22045AL  23085.21219998  .00040913  00000-0  25748-2 0  9998,2 52365  53.2171 355.0833 0001349 108.4831 251.6307 15.08826821 52957,2022-045AL,52365,6917.921,95.438,540.719,538.852,0
GENERATED VIA SPACETRACK.ORG API,18 SPCS,52365,STARLINK-3874,PAYLOAD,U,22045AL,2023-03-26 20:59:26,108736,15.08843805,0.0001084,53.2171,352.1107,67.7655,292.3452,0,999,5305,0.0019293,0.00030553,0,3871846,0 STARLINK-3874,1 52365U 22045AL  23085.87460774  .00030553  00000-0  19293-2 0  9997,2 52365  53.2171 352.1107 0001084  67.7655 292.3452 15.08843805 53052,2022-045AL,52365,6917.869,95.437,540.484,538.984,0
GENERATED VIA SPACETRACK.ORG API,18 SPCS,52365,STARLINK-3874,PAYLOAD,U,22045AL,2023-03-26 22:34:49,201536,15.08847032,0.0001041,53.2171,351.8129,74.0344,286.0763,0,999,5306,0.0018395,0.00029115,0,3871964,0 STARLINK-3874,1 52365U 22045AL  23085.94084724  .00029115  00000-0  18395-2 0  9996,2 52365  53.2171 351.8129 0001041  74.0344 286.0763 15.08847032 53063,2022-045AL,52365,6917.859,95.437,540.444,539.004,0
GENERATED VIA SPACETRACK.ORG API,18 SPCS,52365,STARLINK-3874,PAYLOAD,U,22045AL,2023-03-27 03:20:58,168896,15.08865534,0.0001104,53.2174,350.9212,105.8416,254.2698,0,999,5309,0.0019148,0.00030339,0,3872569,0 STARLINK-3874,1 52365U 22045AL  23086.13956214  .00030339  00000-0  19148-2 0  9997,2 52365  53.2174 350.9212 0001104 105.8416 254.2698 15.08865534 53096,2022-045AL,52365,6917.802,95.436,540.431,538.904,0
GENERATED VIA SPACETRACK.ORG API,18 SPCS,52365,STARLINK-3874,PAYLOAD,U,22045AL,2023-03-27 22:25:35,837184,15.08853136,0.000144,53.2185,347.3529,109.1209,250.9939,0,999,5321,0.0006291,9.742e-05,0,3872868,0 STARLINK-3874,1 52365U 22045AL  23086.93444256  .00009742  00000-0  62910-3 0  9993,2 52365  53.2185 347.3529 0001440 109.1209 250.9939 15.08853136 53219,2022-045AL,52365,6917.84,95.437,540.701,538.709,0
GENERATED VIA SPACETRACK.ORG API,18 SPCS,52365,STARLINK-3874,PAYLOAD,U,22045AL,2023-03-27 22:25:35,837184,15.08853136,0.000144,53.2185,347.3529,109.1209,250.9939,0,999,5321,0.0006291,9.742e-05,0,3872915,0 STARLINK-3874,1 52365U 22045AL  23086.93444256  .00009742  00000-0  62910-3 0  9993,2 52365  53.2185 347.3529 0001440 109.1209 250.9939 15.08853136 53219,2022-045AL,52365,6917.84,95.437,540.701,538.709,0
GENERATED VIA SPACETRACK.ORG API,18 SPCS,52365,STARLINK-3874,PAYLOAD,U,22045AL,2023-03-28 00:00:58,900608,15.08855862,0.0001463,53.2185,347.0554,108.848,251.2671,0,999,5322,0.00070486,0.00010952,0,3873565,0 STARLINK-3874,1 52365U 22045AL  23087.00068172  .00010952  00000-0  70486-3 0  9993,2 52365  53.2185 347.0554 0001463 108.8480 251.2671 15.08855862 53222,2022-045AL,52365,6917.832,95.437,540.709,538.685,0
GENERATED VIA SPACETRACK.ORG API,18 SPCS,52365,STARLINK-3874,PAYLOAD,U,22045AL,2023-03-28 20:40:59,618496,15.0884832,0.0001499,53.2189,343.1908,99.2783,260.8379,0,999,5335,0.00024742,3.653e-05,0,3873921,0 STARLINK-3874,1 52365U 22045AL  23087.86180114  .00003653  00000-0  24742-3 0  9992,2 52365  53.2189 343.1908 0001499  99.2783 260.8379 15.08848320 53350,2022-045AL,52365,6917.855,95.437,540.757,538.683,0
GENERATED VIA SPACETRACK.ORG API,18 SPCS,52365,STARLINK-3874,PAYLOAD,U,22045AL,2023-03-28 23:51:45,561312,15.0885294,0.0001383,53.2174,342.5921,106.2705,253.844,0,999,5337,0.00022271,3.259e-05,0,3873884,0 STARLINK-3874,1 52365U 22045AL  23087.99427733  .00003259  00000-0  22271-3 0  9994,2 52365  53.2174 342.5921 0001383 106.2705 253.8440 15.08852940 53373,2022-045AL,52365,6917.841,95.437,540.663,538.749,0
GENERATED VIA SPACETRACK.ORG API,18 SPCS,52365,STARLINK-3874,PAYLOAD,U,22045AL,2023-03-28 23:51:45,561312,15.0885294,0.0001383,53.2174,342.5921,106.2705,253.844,0,999,5337,0.00022271,3.259e-05,0,3874492,0 STARLINK-3874,1 52365U 22045AL  23087.99427733  .00003259  00000-0  22271-3 0  9994,2 52365  53.2174 342.5921 0001383 106.2705 253.8440 15.08852940 53373,2022-045AL,52365,6917.841,95.437,540.663,538.749,0
GENERATED VIA SPACETRACK.ORG API,18 SPCS,52365,STARLINK-3874,PAYLOAD,U,22045AL,2023-03-29 20:31:46,591968,15.08841775,0.0001476,53.2169,338.7256,111.1233,248.9917,0,999,5350,6.681e-05,7.76e-06,0,3874745,0 STARLINK-3874,1 52365U 22045AL  23088.85540037  .00000776  00000-0  66810-4 0  9992,2 52365  53.2169 338.7256 0001476 111.1233 248.9917 15.08841775 53502,2022-045AL,52365,6917.875,95.437,540.761,538.719,0
GENERATED VIA SPACETRACK.ORG API,18 SPCS,52365,STARLINK-3874,PAYLOAD,U,22045AL,2023-03-29 20:31:46,591968,15.08841775,0.0001476,53.2169,338.7256,111.1233,248.9917,0,999,5350,6.681e-05,7.76e-06,0,3874790,0 STARLINK-3874,1 52365U 22045AL  23088.85540037  .00000776  00000-0  66810-4 0  9992,2 52365  53.2169 338.7256 0001476 111.1233 248.9917 15.08841775 53502,2022-045AL,52365,6917.875,95.437,540.761,538.719,0
GENERATED VIA SPACETRACK.ORG API,18 SPCS,52365,STARLINK-3874,PAYLOAD,U,22045AL,2023-03-30 02:53:18,771360,15.08857655,0.0001365,53.2186,337.5402,104.684,255.4303,0,999,5354,0.00037476,5.684e-05,0,3875083,0 STARLINK-3874,1 52365U 22045AL  23089.12035615  .00005684  00000-0  37476-3 0  9992,2 52365  53.2186 337.5402 0001365 104.6840 255.4303 15.08857655 53549,2022-045AL,52365,6917.826,95.436,540.636,538.747,0
GENERATED VIA SPACETRACK.ORG API,18 SPCS,52365,STARLINK-3874,PAYLOAD,U,22045AL,2023-03-30 02:53:18,771360,15.08857655,0.0001365,53.2186,337.5402,104.684,255.4303,0,999,5354,0.00037476,5.684e-05,0,3875726,0 STARLINK-3874,1 52365U 22045AL  23089.12035615  .00005684  00000-0  37476-3 0  9992,2 52365  53.2186 337.5402 0001365 104.6840 255.4303 15.08857655 53549,2022-045AL,52365,6917.826,95.436,540.636,538.747,0
